GLOBALSTAR M023         
1 25621U 99004A   24204.87352172 -.00000003  00000+0  56213-3 0  9998
2 25621  52.0125 336.1850 0010873 119.5002  47.0627 12.62464135174132
GLOBALSTAR M040         
1 25622U 99004B   24204.79549579 -.00000076  00000+0  15348-3 0  9993
2 25622  51.9942 340.0880 0001280  72.0816  75.5842 12.61977508173667
GLOBALSTAR M036         
1 25623U 99004C   24204.86134361 -.00000028  00000+0  79272-3 0  9994
2 25623  51.9982  28.3332 0011639 135.3194  10.7581 11.86571466139887
GLOBALSTAR M038         
1 25624U 99004D   24204.78088521 -.00000043  00000+0  43312-3 0  9995
2 25624  51.9987 300.2090 0002351  98.6651  43.8499 12.32503422161751
GLOBALSTAR M022         
1 25649U 99012A   24204.73489899 -.00000080  00000+0  82013-4 0  9992
2 25649  52.0038 106.4928 0001840 240.9963 148.3956 12.02485301136745
GLOBALSTAR M041         
1 25650U 99012B   24204.78517612 -.00000054  00000+0  40200-3 0  9996
2 25650  52.0044 337.7644 0002881  49.3843 310.7244 11.96655922138840
GLOBALSTAR M046         
1 25651U 99012C   24205.01417598 -.00000092  00000+0 -32239-4 0  9993
2 25651  52.0062  67.8838 0002094 337.0953 170.9098 12.09391975144189
GLOBALSTAR M037         
1 25652U 99012D   24205.15015697 -.00000053  00000+0  28577-3 0  9998
2 25652  52.0004 106.0816 0001566 158.6445 350.5073 12.62412398169777
